{
  "links" : {
    "next" : "https://api.nasa.gov/neo/rest/v1/feed?start_date=2003-07-16&end_date=2003-07-16&detailed=true&api_key=t0TVs3DtDT2H8Oy2Zy8m2eVrNsAVKAexjcZXUckd",
    "prev" : "https://api.nasa.gov/neo/rest/v1/feed?start_date=2003-07-14&end_date=2003-07-14&detailed=true&api_key=t0TVs3DtDT2H8Oy2Zy8m2eVrNsAVKAexjcZXUckd",
    "self" : "https://api.nasa.gov/neo/rest/v1/feed?start_date=2003-07-15&end_date=2003-07-15&detailed=true&api_key=t0TVs3DtDT2H8Oy2Zy8m2eVrNsAVKAexjcZXUckd"
  },
  "element_count" : 5,
  "near_earth_objects" : {
    "2003-07-15" : [ {
      "links" : {
        "self" : "https://api.nasa.gov/neo/rest/v1/neo/3773058?api_key=t0TVs3DtDT2H8Oy2Zy8m2eVrNsAVKAexjcZXUckd"
      },
      "neo_reference_id" : "3773058",
      "name" : "(2017 FU102)",
      "nasa_jpl_url" : "http://ssd.jpl.nasa.gov/sbdb.cgi?sstr=3773058",
      "absolute_magnitude_h" : 28.665,
      "estimated_diameter" : {
        "kilometers" : {
          "estimated_diameter_min" : 0.004915356,
          "estimated_diameter_max" : 0.0109910701
        },
        "meters" : {
          "estimated_diameter_min" : 4.9153559892,
          "estimated_diameter_max" : 10.9910701256
        },
        "miles" : {
          "estimated_diameter_min" : 0.0030542597,
          "estimated_diameter_max" : 0.0068295322
        },
        "feet" : {
          "estimated_diameter_min" : 16.1264965438,
          "estimated_diameter_max" : 36.0599425107
        }
      },
      "is_potentially_hazardous_asteroid" : false,
      "close_approach_data" : [ {
        "close_approach_date" : "2003-07-15",
        "epoch_date_close_approach" : 1058252400000,
        "relative_velocity" : {
          "kilometers_per_second" : "7.7517163245",
          "kilometers_per_hour" : "27906.1787682607",
          "miles_per_hour" : "17339.8142463118"
        },
        "miss_distance" : {
          "astronomical" : "0.0601482967",
          "lunar" : "23.3976860046",
          "kilometers" : "8998057",
          "miles" : "5591133.5"
        },
        "orbiting_body" : "Earth"
      } ],
      "orbital_data" : {
        "orbit_id" : "5",
        "orbit_determination_date" : "2017-07-19 16:35:34",
        "orbit_uncertainty" : "4",
        "minimum_orbit_intersection" : ".000802905",
        "jupiter_tisserand_invariant" : "4.992",
        "epoch_osculation" : "2458000.5",
        "eccentricity" : ".2870215746772456",
        "semi_major_axis" : "1.287930827658888",
        "inclination" : "3.005537548195311",
        "ascending_node_longitude" : "12.69635245594941",
        "orbital_period" : "533.8721114174923",
        "perihelion_distance" : ".9182668934288655",
        "perihelion_argument" : "231.1643097788973",
        "aphelion_distance" : "1.65759476188891",
        "perihelion_time" : "2457888.692980322947",
        "mean_anomaly" : "75.39357502093405",
        "mean_motion" : ".6743187971444291",
        "equinox" : "J2000"
      }
    }, {
      "links" : {
        "self" : "https://api.nasa.gov/neo/rest/v1/neo/3776278?api_key=t0TVs3DtDT2H8Oy2Zy8m2eVrNsAVKAexjcZXUckd"
      },
      "neo_reference_id" : "3776278",
      "name" : "(2017 MU8)",
      "nasa_jpl_url" : "http://ssd.jpl.nasa.gov/sbdb.cgi?sstr=3776278",
      "absolute_magnitude_h" : 21.457,
      "estimated_diameter" : {
        "kilometers" : {
          "estimated_diameter_min" : 0.1358798243,
          "estimated_diameter_max" : 0.3038365239
        },
        "meters" : {
          "estimated_diameter_min" : 135.8798242921,
          "estimated_diameter_max" : 303.8365238879
        },
        "miles" : {
          "estimated_diameter_min" : 0.0844317823,
          "estimated_diameter_max" : 0.1887952047
        },
        "feet" : {
          "estimated_diameter_min" : 445.7999627305,
          "estimated_diameter_max" : 996.8390210322
        }
      },
      "is_potentially_hazardous_asteroid" : true,
      "close_approach_data" : [ {
        "close_approach_date" : "2003-07-15",
        "epoch_date_close_approach" : 1058252400000,
        "relative_velocity" : {
          "kilometers_per_second" : "9.6793104881",
          "kilometers_per_hour" : "34845.5177570235",
          "miles_per_hour" : "21651.6496307461"
        },
        "miss_distance" : {
          "astronomical" : "0.2682872969",
          "lunar" : "104.3637619019",
          "kilometers" : "40135208",
          "miles" : "24938862"
        },
        "orbiting_body" : "Earth"
      } ],
      "orbital_data" : {
        "orbit_id" : "9",
        "orbit_determination_date" : "2017-09-13 06:18:33",
        "orbit_uncertainty" : "4",
        "minimum_orbit_intersection" : ".0484508",
        "jupiter_tisserand_invariant" : "6.228",
        "epoch_osculation" : "2458000.5",
        "eccentricity" : ".2544857497043958",
        "semi_major_axis" : ".9560184510476546",
        "inclination" : "18.60926331792147",
        "ascending_node_longitude" : "276.2023923868696",
        "orbital_period" : "341.4269811889229",
        "perihelion_distance" : ".7127253788015571",
        "perihelion_argument" : "228.197237199855",
        "aphelion_distance" : "1.199311523293752",
        "perihelion_time" : "2458161.731277452941",
        "mean_anomaly" : "189.9980286240424",
        "mean_motion" : "1.054398216410437",
        "equinox" : "J2000"
      }
    } ]
  }
}